[{"OBJECT_NAME":"CUBEBUG-2 (LO-74)","OBJECT_ID":"2013-066AA","EPOCH":"2026-03-09T19:57:37.220256","MEAN_MOTION":14.92958446,"ECCENTRICITY":0.00587054,"INCLINATION":97.8812,"RA_OF_ASC_NODE":17.505,"ARG_OF_PERICENTER":358.4894,"MEAN_ANOMALY":1.6138,"EPHEMERIS_TYPE":0,"CLASSIFICATION_TYPE":"U","NORAD_CAT_ID":39440,"ELEMENT_SET_NO":999,"REV_AT_EPOCH":66216,"BSTAR":0.0005932098,"MEAN_MOTION_DOT":6.31e-5,"MEAN_MOTION_DDOT":0},{"OBJECT_NAME":"UNKNOWN","OBJECT_ID":"","EPOCH":"2026-03-02T15:31:43.255488","MEAN_MOTION":14.74826686,"ECCENTRICITY":0.00886532,"INCLINATION":97.7372,"RA_OF_ASC_NODE":27.9824,"ARG_OF_PERICENTER":173.6901,"MEAN_ANOMALY":186.5448,"EPHEMERIS_TYPE":0,"CLASSIFICATION_TYPE":"U","NORAD_CAT_ID":270295,"ELEMENT_SET_NO":999,"REV_AT_EPOCH":10079,"BSTAR":0.0026126092,"MEAN_MOTION_DOT":0.00018643,"MEAN_MOTION_DDOT":0}]
